GSAT0101 (PRN E11)      
1 37846U 11060A   21029.96050097 -.00000039  00000-0  00000-0 0  9999
2 37846  56.7651  35.0672 0003986 319.3968  40.6060  1.70475197 57636
GSAT0102 (PRN E12)      
1 37847U 11060B   21030.47726821 -.00000040  00000-0  00000-0 0  9995
2 37847  56.7650  35.0524 0005766 305.8430  57.4960  1.70475364 57657
GSAT0103 (PRN E19)      
1 38857U 12055A   21030.00206779  .00000020  00000-0  00000-0 0  9993
2 38857  55.0185 155.5464 0002298 245.3988 114.5352  1.70473553 51672
GSAT0104 (PRN E20)      
1 38858U 12055B   21029.93649588  .00000020  00000-0  00000-0 0  9993
2 38858  55.0194 155.5479 0001047 237.6447 122.3027  1.70473469 51676
GSAT0201 (PRN E18)      
1 40128U 14050A   21030.32115992 -.00000078  00000-0  00000-0 0  9999
2 40128  50.5229 352.3276 1651777 106.7645 271.9702  1.85519111 41882
GSAT0202 (PRN E14)      
1 40129U 14050B   21028.96705307 -.00000080  00000-0  00000-0 0  9995
2 40129  50.5564 351.4262 1649308 107.5330 271.1312  1.85519808 44028
GSAT0203 (PRN E26)      
1 40544U 15017A   21030.32827155 -.00000040  00000-0  00000-0 0  9995
2 40544  56.5591  35.1594 0005474 265.4577  94.5110  1.70474777 35724
GSAT0204 (PRN E22)      
1 40545U 15017B   21028.93602785 -.00000039  00000-0  00000-0 0  9998
2 40545  56.5646  35.2145 0003251 248.5888 111.4135  1.70475094 36367
GSAT0205 (PRN E24)      
1 40889U 15045A   21029.17808023  .00000039  00000-0  00000-0 0  9999
2 40889  55.9767 275.8826 0005941  15.7929 344.3188  1.70474697 33518
GSAT0206 (PRN E30)      
1 40890U 15045B   21029.98416907  .00000038  00000-0  00000-0 0  9995
2 40890  55.9763 275.8566 0004161   9.9127 350.1874  1.70474861 33559
GSAT0209 (PRN E09)      
1 41174U 15079A   21029.57109621  .00000019  00000-0  00000+0 0  9993
2 41174  55.0338 155.2580 0002938 321.5760  38.3589  1.70473600 31867
GSAT0208 (PRN E08)      
1 41175U 15079B   21030.37739846  .00000021  00000-0  00000-0 0  9996
2 41175  55.0320 155.2346 0002165 325.6452  34.3012  1.70473597 31888
GSAT0211 (PRN E02)      
1 41549U 16030A   21029.32573097  .00000040  00000-0  00000-0 0  9997
2 41549  56.1201 275.7549 0004532 342.8456  17.2324  1.70474482 29170
GSAT0210 (PRN E01)      
1 41550U 16030B   21029.03201545  .00000040  00000-0  00000-0 0  9993
2 41550  56.1197 275.7645 0003032 322.3460  37.7262  1.70474556 29164
GSAT0207 (PRN E07)      
1 41859U 16069A   21030.45041481  .00000021  00000-0  00000-0 0  9995
2 41859  54.6913 155.5396 0002690 300.1509  59.7827  1.70473561 26084
GSAT0212 (PRN E03)      
1 41860U 16069B   21029.71726864  .00000019  00000-0  00000-0 0  9996
2 41860  54.6898 155.5586 0002036 344.3701  15.5797  1.70473542 26161
GSAT0213 (PRN E04)      
1 41861U 16069C   21028.90979198  .00000018  00000-0  00000-0 0  9996
2 41861  54.6916 155.5854 0002159 260.3448  99.5832  1.70473612 26151
GSAT0214 (PRN E05)      
1 41862U 16069D   21030.23003233  .00000020  00000-0  00000-0 0  9997
2 41862  54.6895 155.5438 0001362 266.5473  93.3961  1.70473690 26169
GSAT0215 (PRN E21)      
1 43055U 17079A   21030.13409485  .00000038  00000-0  00000-0 0  9992
2 43055  56.0942 275.5727 0002371 327.8355  32.2417  1.70473719 19509
GSAT0216 (PRN E25)      
1 43056U 17079B   21028.08034847  .00000039  00000-0  00000+0 0  9990
2 43056  56.0960 275.6289 0003838 305.4486  54.6083  1.70473888 19458
GSAT0217 (PRN E27)      
1 43057U 17079C   21030.06020723  .00000039  00000-0  00000-0 0  9991
2 43057  56.0923 275.5748 0003943 320.4207  39.6425  1.70473765 19505
GSAT0218 (PRN E31)      
1 43058U 17079D   21029.10703535  .00000040  00000-0  00000-0 0  9996
2 43058  56.0923 275.5983 0004056 298.4387  61.6140  1.70473847 19517
GSAT0221 (PRN E15)      
1 43564U 18060A   21029.00547630 -.00000038  00000-0  00000+0 0  9997
2 43564  56.9450  34.8818 0006252 277.2810  82.6838  1.70475895 15677
GSAT0222 (PRN E33)      
1 43565U 18060B   21029.22531615 -.00000038  00000-0  00000-0 0  9999
2 43565  56.9455  34.8756 0005986 283.7892  76.1793  1.70475932 15714
GSAT0219 (PRN E36)      
1 43566U 18060C   21028.27260041 -.00000038  00000-0  00000-0 0  9996
2 43566  56.9460  34.9034 0005671 279.6971  80.2775  1.70475793 15670
GSAT0220 (PRN E13)      
1 43567U 18060D   21030.25221586 -.00000040  00000-0  00000-0 0  9992
2 43567  56.9472  34.8499 0005825 280.9437  79.0217  1.70475715 15694
